{
    "links": {
        "self": "http://www.neowsapp.com/rest/v1/neo/3754335?api_key=iIulBulltgU6a56xZRHN4H3l9WmuAYTsLGpBGhQ2"
    },
    "id": "3754335",
    "neo_reference_id": "3754335",
    "name": "(2016 MO)",
    "designation": "2016 MO",
    "nasa_jpl_url": "http://ssd.jpl.nasa.gov/sbdb.cgi?sstr=3754335",
    "absolute_magnitude_h": 24.8,
    "estimated_diameter": {
        "kilometers": {
            "estimated_diameter_min": 0.0291443905,
            "estimated_diameter_max": 0.0651688382
        },
        "meters": {
            "estimated_diameter_min": 29.1443904535,
            "estimated_diameter_max": 65.1688382168
        },
        "miles": {
            "estimated_diameter_min": 0.018109479,
            "estimated_diameter_max": 0.0404940262
        },
        "feet": {
            "estimated_diameter_min": 95.6180819754,
            "estimated_diameter_max": 213.8085311752
        }
    },
    "is_potentially_hazardous_asteroid": false,
    "close_approach_data": [
        {
            "close_approach_date": "1969-10-04",
            "close_approach_date_full": "1969-Oct-04 13:33",
            "epoch_date_close_approach": -7640820000,
            "relative_velocity": {
                "kilometers_per_second": "15.8819549369",
                "kilometers_per_hour": "57175.0377728159",
                "miles_per_hour": "35526.3449983366"
            },
            "miss_distance": {
                "astronomical": "0.2653972923",
                "lunar": "103.2395467047",
                "kilometers": "39702869.631847401",
                "miles": "24670219.2159640938"
            },
            "orbiting_body": "Earth"
        },
        {
            "close_approach_date": "2016-07-07",
            "close_approach_date_full": "2016-Jul-07 13:22",
            "epoch_date_close_approach": 1467897720000,
            "relative_velocity": {
                "kilometers_per_second": "7.7204809672",
                "kilometers_per_hour": "27793.7314820781",
                "miles_per_hour": "17269.9438756279"
            },
            "miss_distance": {
                "astronomical": "0.01706009",
                "lunar": "6.63637501",
                "kilometers": "2552153.1260083",
                "miles": "1585834.41638254"
            },
            "orbiting_body": "Earth"
        },
        {
            "close_approach_date": "2119-10-18",
            "close_approach_date_full": "2119-Oct-18 16:07",
            "epoch_date_close_approach": 4727088420000,
            "relative_velocity": {
                "kilometers_per_second": "22.0747521328",
                "kilometers_per_hour": "79469.1076781394",
                "miles_per_hour": "49379.0130458972"
            },
            "miss_distance": {
                "astronomical": "0.471511018",
                "lunar": "183.417786002",
                "kilometers": "70537043.97433166",
                "miles": "43829686.716070508"
            },
            "orbiting_body": "Earth"
        }
    ],
    "orbital_data": {
        "orbit_id": "8",
        "orbit_determination_date": "2017-04-06 08:25:15",
        "first_observation_date": "2016-06-28",
        "last_observation_date": "2016-07-06",
        "data_arc_in_days": 8,
        "observations_used": 32,
        "orbit_uncertainty": "7",
        "minimum_orbit_intersection": ".0113316",
        "jupiter_tisserand_invariant": "4.070",
        "epoch_osculation": "2459000.5",
        "eccentricity": ".4349844956366085",
        "semi_major_axis": "1.713090734632275",
        "inclination": "2.507402828505459",
        "ascending_node_longitude": "267.8075610410812",
        "orbital_period": "818.9718534920853",
        "perihelion_distance": ".9679228254485076",
        "perihelion_argument": "47.83993417750062",
        "aphelion_distance": "2.458258643816042",
        "perihelion_time": "2459240.421901981256",
        "mean_anomaly": "254.5361988388689",
        "mean_motion": ".4395755464183106",
        "equinox": "J2000",
        "orbit_class": {
            "orbit_class_type": "APO",
            "orbit_class_description": "Near-Earth asteroid orbits which cross the Earth’s orbit similar to that of 1862 Apollo",
            "orbit_class_range": "a (semi-major axis) > 1.0 AU; q (perihelion) < 1.017 AU"
        }
    },
    "is_sentry_object": false
}